[{"OBJECT_NAME":"GAOFEN-1","OBJECT_ID":"2013-018A","EPOCH":"2026-03-09T23:41:10.925664","MEAN_MOTION":14.76548234,"ECCENTRICITY":0.00163762,"INCLINATION":97.917,"RA_OF_ASC_NODE":143.0376,"ARG_OF_PERICENTER":223.3024,"MEAN_ANOMALY":136.69,"EPHEMERIS_TYPE":0,"CLASSIFICATION_TYPE":"U","NORAD_CAT_ID":39150,"ELEMENT_SET_NO":999,"REV_AT_EPOCH":69360,"BSTAR":0.00016125455,"MEAN_MOTION_DOT":1.076e-5,"MEAN_MOTION_DDOT":0},{"OBJECT_NAME":"KUIPER-00011","OBJECT_ID":"2025-088D","EPOCH":"2026-03-09T06:15:09.756576","MEAN_MOTION":14.79821634,"ECCENTRICITY":9.971e-5,"INCLINATION":51.8995,"RA_OF_ASC_NODE":92.5537,"ARG_OF_PERICENTER":103.2236,"MEAN_ANOMALY":256.8837,"EPHEMERIS_TYPE":0,"CLASSIFICATION_TYPE":"U","NORAD_CAT_ID":63727,"ELEMENT_SET_NO":999,"REV_AT_EPOCH":4769,"BSTAR":0.00052945008,"MEAN_MOTION_DOT":3.807e-5,"MEAN_MOTION_DDOT":0}]
